[
  {
    "OBJECT_NAME": "STARLINK-34626",
    "OBJECT_ID": "25167E",
    "EPOCH": "2025-11-11T00:57:18.491040",
    "MEAN_MOTION": 15.39665921,
    "ECCENTRICITY": 0.0001098,
    "INCLINATION": 53.1578,
    "RA_OF_ASC_NODE": 218.6017,
    "ARG_OF_PERICENTER": 93.2056,
    "MEAN_ANOMALY": 266.9075,
    "EPHEMERIS_TYPE": 0,
    "CLASSIFICATION_TYPE": "U",
    "NORAD_CAT_ID": 65082,
    "ELEMENT_SET_NO": 999,
    "REV_AT_EPOCH": 1530,
    "BSTAR": 0.00079007,
    "MEAN_MOTION_DOT": 0.0003138,
    "MEAN_MOTION_DDOT": 0.0,
    "TLE_LINE1": "1 65082U 25167E   25315.03979735  .00031380  00000+0  79007-3 0  9991",
    "TLE_LINE2": "2 65082  53.1578 218.6017 0001098  93.2056 266.9075 15.39665921 15301",
    "COMMENT": "Grouped by shell and plane from TLE"
  },
  {
    "OBJECT_NAME": "STARLINK-34247",
    "OBJECT_ID": "25167F",
    "EPOCH": "2025-11-11T03:30:04.703328",
    "MEAN_MOTION": 15.39651061,
    "ECCENTRICITY": 0.0001098,
    "INCLINATION": 53.1573,
    "RA_OF_ASC_NODE": 216.3883,
    "ARG_OF_PERICENTER": 79.3015,
    "MEAN_ANOMALY": 280.8114,
    "EPHEMERIS_TYPE": 0,
    "CLASSIFICATION_TYPE": "U",
    "NORAD_CAT_ID": 65083,
    "ELEMENT_SET_NO": 999,
    "REV_AT_EPOCH": 1534,
    "BSTAR": 0.0020050000000000003,
    "MEAN_MOTION_DOT": 0.00080735,
    "MEAN_MOTION_DDOT": 0.0,
    "TLE_LINE1": "1 65083U 25167F   25315.14588777  .00080735  00000+0  20050-2 0  9997",
    "TLE_LINE2": "2 65083  53.1573 216.3883 0001098  79.3015 280.8114 15.39651061 15346",
    "COMMENT": "Grouped by shell and plane from TLE"
  },
  {
    "OBJECT_NAME": "STARLINK-34601",
    "OBJECT_ID": "25167G",
    "EPOCH": "2025-11-11T02:49:08.777280",
    "MEAN_MOTION": 15.30219461,
    "ECCENTRICITY": 0.0001182,
    "INCLINATION": 53.1593,
    "RA_OF_ASC_NODE": 217.58,
    "ARG_OF_PERICENTER": 85.6735,
    "MEAN_ANOMALY": 274.4401,
    "EPHEMERIS_TYPE": 0,
    "CLASSIFICATION_TYPE": "U",
    "NORAD_CAT_ID": 65084,
    "ELEMENT_SET_NO": 999,
    "REV_AT_EPOCH": 1532,
    "BSTAR": 0.0010727,
    "MEAN_MOTION_DOT": 0.00031567,
    "MEAN_MOTION_DDOT": 0.0,
    "TLE_LINE1": "1 65084U 25167G   25315.11746270  .00031567  00000+0  10727-2 0  9998",
    "TLE_LINE2": "2 65084  53.1593 217.5800 0001182  85.6735 274.4401 15.30219461 15325",
    "COMMENT": "Grouped by shell and plane from TLE"
  },
  {
    "OBJECT_NAME": "STARLINK-34792",
    "OBJECT_ID": "25167H",
    "EPOCH": "2025-11-11T03:21:03.409056",
    "MEAN_MOTION": 15.30212916,
    "ECCENTRICITY": 0.0001092,
    "INCLINATION": 53.159,
    "RA_OF_ASC_NODE": 217.7178,
    "ARG_OF_PERICENTER": 85.1292,
    "MEAN_ANOMALY": 274.9833,
    "EPHEMERIS_TYPE": 0,
    "CLASSIFICATION_TYPE": "U",
    "NORAD_CAT_ID": 65085,
    "ELEMENT_SET_NO": 999,
    "REV_AT_EPOCH": 1532,
    "BSTAR": 0.0010907,
    "MEAN_MOTION_DOT": 0.00032096,
    "MEAN_MOTION_DDOT": 0.0,
    "TLE_LINE1": "1 65085U 25167H   25315.13962279  .00032096  00000+0  10907-2 0  9998",
    "TLE_LINE2": "2 65085  53.1590 217.7178 0001092  85.1292 274.9833 15.30212916 15328",
    "COMMENT": "Grouped by shell and plane from TLE"
  },
  {
    "OBJECT_NAME": "STARLINK-34822",
    "OBJECT_ID": "25167J",
    "EPOCH": "2025-11-11T03:16:29.400096",
    "MEAN_MOTION": 15.3017254,
    "ECCENTRICITY": 0.0001333,
    "INCLINATION": 53.1583,
    "RA_OF_ASC_NODE": 217.7004,
    "ARG_OF_PERICENTER": 57.1718,
    "MEAN_ANOMALY": 302.9411,
    "EPHEMERIS_TYPE": 0,
    "CLASSIFICATION_TYPE": "U",
    "NORAD_CAT_ID": 65086,
    "ELEMENT_SET_NO": 999,
    "REV_AT_EPOCH": 1532,
    "BSTAR": 0.001075,
    "MEAN_MOTION_DOT": 0.00031587,
    "MEAN_MOTION_DDOT": 0.0,
    "TLE_LINE1": "1 65086U 25167J   25315.13645139  .00031587  00000+0  10750-2 0  9992",
    "TLE_LINE2": "2 65086  53.1583 217.7004 0001333  57.1718 302.9411 15.30172540 15321",
    "COMMENT": "Grouped by shell and plane from TLE"
  },
  {
    "OBJECT_NAME": "STARLINK-34686",
    "OBJECT_ID": "25167K",
    "EPOCH": "2025-11-11T03:11:56.556672",
    "MEAN_MOTION": 15.30216857,
    "ECCENTRICITY": 0.0001522,
    "INCLINATION": 53.1594,
    "RA_OF_ASC_NODE": 217.6793,
    "ARG_OF_PERICENTER": 70.457,
    "MEAN_ANOMALY": 289.6596,
    "EPHEMERIS_TYPE": 0,
    "CLASSIFICATION_TYPE": "U",
    "NORAD_CAT_ID": 65087,
    "ELEMENT_SET_NO": 999,
    "REV_AT_EPOCH": 1532,
    "BSTAR": 0.0012277,
    "MEAN_MOTION_DOT": 0.00036199,
    "MEAN_MOTION_DDOT": 0.0,
    "TLE_LINE1": "1 65087U 25167K   25315.13329348  .00036199  00000+0  12277-2 0  9994",
    "TLE_LINE2": "2 65087  53.1594 217.6793 0001522  70.4570 289.6596 15.30216857 15327",
    "COMMENT": "Grouped by shell and plane from TLE"
  },
  {
    "OBJECT_NAME": "STARLINK-34594",
    "OBJECT_ID": "25167L",
    "EPOCH": "2025-11-11T03:07:22.725696",
    "MEAN_MOTION": 15.30205558,
    "ECCENTRICITY": 0.000126,
    "INCLINATION": 53.1592,
    "RA_OF_ASC_NODE": 217.6573,
    "ARG_OF_PERICENTER": 86.2325,
    "MEAN_ANOMALY": 273.8819,
    "EPHEMERIS_TYPE": 0,
    "CLASSIFICATION_TYPE": "U",
    "NORAD_CAT_ID": 65088,
    "ELEMENT_SET_NO": 999,
    "REV_AT_EPOCH": 1532,
    "BSTAR": 0.0013019,
    "MEAN_MOTION_DOT": 0.00038407,
    "MEAN_MOTION_DDOT": 0.0,
    "TLE_LINE1": "1 65088U 25167L   25315.13012414  .00038407  00000+0  13019-2 0  9997",
    "TLE_LINE2": "2 65088  53.1592 217.6573 0001260  86.2325 273.8819 15.30205558 15323",
    "COMMENT": "Grouped by shell and plane from TLE"
  },
  {
    "OBJECT_NAME": "STARLINK-34665",
    "OBJECT_ID": "25167M",
    "EPOCH": "2025-11-10T23:54:42.823872",
    "MEAN_MOTION": 15.30220246,
    "ECCENTRICITY": 9.76e-05,
    "INCLINATION": 53.1595,
    "RA_OF_ASC_NODE": 218.2424,
    "ARG_OF_PERICENTER": 94.6292,
    "MEAN_ANOMALY": 265.4821,
    "EPHEMERIS_TYPE": 0,
    "CLASSIFICATION_TYPE": "U",
    "NORAD_CAT_ID": 65089,
    "ELEMENT_SET_NO": 999,
    "REV_AT_EPOCH": 1530,
    "BSTAR": 0.0013592,
    "MEAN_MOTION_DOT": 0.0004014,
    "MEAN_MOTION_DDOT": 0.0,
    "TLE_LINE1": "1 65089U 25167M   25314.99632898  .00040140  00000+0  13592-2 0  9998",
    "TLE_LINE2": "2 65089  53.1595 218.2424 0000976  94.6292 265.4821 15.30220246 15307",
    "COMMENT": "Grouped by shell and plane from TLE"
  },
  {
    "OBJECT_NAME": "STARLINK-34673",
    "OBJECT_ID": "25167N",
    "EPOCH": "2025-11-11T02:58:15.691872",
    "MEAN_MOTION": 15.30202942,
    "ECCENTRICITY": 0.0001217,
    "INCLINATION": 53.1595,
    "RA_OF_ASC_NODE": 217.6152,
    "ARG_OF_PERICENTER": 89.7145,
    "MEAN_ANOMALY": 270.3995,
    "EPHEMERIS_TYPE": 0,
    "CLASSIFICATION_TYPE": "U",
    "NORAD_CAT_ID": 65090,
    "ELEMENT_SET_NO": 999,
    "REV_AT_EPOCH": 1532,
    "BSTAR": 0.00091004,
    "MEAN_MOTION_DOT": 0.00026693,
    "MEAN_MOTION_DDOT": 0.0,
    "TLE_LINE1": "1 65090U 25167N   25315.12379273  .00026693  00000+0  91004-3 0  9993",
    "TLE_LINE2": "2 65090  53.1595 217.6152 0001217  89.7145 270.3995 15.30202942 15323",
    "COMMENT": "Grouped by shell and plane from TLE"
  },
  {
    "OBJECT_NAME": "STARLINK-34648",
    "OBJECT_ID": "25167P",
    "EPOCH": "2025-11-11T02:55:13.247904",
    "MEAN_MOTION": 15.30216757,
    "ECCENTRICITY": 0.000109,
    "INCLINATION": 53.1587,
    "RA_OF_ASC_NODE": 217.6044,
    "ARG_OF_PERICENTER": 89.8344,
    "MEAN_ANOMALY": 270.2781,
    "EPHEMERIS_TYPE": 0,
    "CLASSIFICATION_TYPE": "U",
    "NORAD_CAT_ID": 65091,
    "ELEMENT_SET_NO": 999,
    "REV_AT_EPOCH": 1532,
    "BSTAR": 0.0019455,
    "MEAN_MOTION_DOT": 0.00057741,
    "MEAN_MOTION_DDOT": 0.0,
    "TLE_LINE1": "1 65091U 25167P   25315.12168111  .00057741  00000+0  19455-2 0  9998",
    "TLE_LINE2": "2 65091  53.1587 217.6044 0001090  89.8344 270.2781 15.30216757 15327",
    "COMMENT": "Grouped by shell and plane from TLE"
  },
  {
    "OBJECT_NAME": "STARLINK-34640",
    "OBJECT_ID": "25167Q",
    "EPOCH": "2025-11-11T02:52:11.062272",
    "MEAN_MOTION": 15.30214694,
    "ECCENTRICITY": 0.0002099,
    "INCLINATION": 53.1594,
    "RA_OF_ASC_NODE": 217.5885,
    "ARG_OF_PERICENTER": 39.9918,
    "MEAN_ANOMALY": 320.1237,
    "EPHEMERIS_TYPE": 0,
    "CLASSIFICATION_TYPE": "U",
    "NORAD_CAT_ID": 65092,
    "ELEMENT_SET_NO": 999,
    "REV_AT_EPOCH": 1532,
    "BSTAR": 0.0013333000000000002,
    "MEAN_MOTION_DOT": 0.00039357,
    "MEAN_MOTION_DDOT": 0.0,
    "TLE_LINE1": "1 65092U 25167Q   25315.11957248  .00039357  00000+0  13333-2 0  9997",
    "TLE_LINE2": "2 65092  53.1594 217.5885 0002099  39.9918 320.1237 15.30214694 15320",
    "COMMENT": "Grouped by shell and plane from TLE"
  },
  {
    "OBJECT_NAME": "STARLINK-34266",
    "OBJECT_ID": "25167R",
    "EPOCH": "2025-11-11T02:47:37.468032",
    "MEAN_MOTION": 15.30199389,
    "ECCENTRICITY": 0.0001241,
    "INCLINATION": 53.1592,
    "RA_OF_ASC_NODE": 217.5705,
    "ARG_OF_PERICENTER": 84.5544,
    "MEAN_ANOMALY": 275.5598,
    "EPHEMERIS_TYPE": 0,
    "CLASSIFICATION_TYPE": "U",
    "NORAD_CAT_ID": 65093,
    "ELEMENT_SET_NO": 999,
    "REV_AT_EPOCH": 1532,
    "BSTAR": 0.0011139000000000001,
    "MEAN_MOTION_DOT": 0.00032776,
    "MEAN_MOTION_DDOT": 0.0,
    "TLE_LINE1": "1 65093U 25167R   25315.11640588  .00032776  00000+0  11139-2 0  9994",
    "TLE_LINE2": "2 65093  53.1592 217.5705 0001241  84.5544 275.5598 15.30199389 15325",
    "COMMENT": "Grouped by shell and plane from TLE"
  },
  {
    "OBJECT_NAME": "STARLINK-34769",
    "OBJECT_ID": "25167S",
    "EPOCH": "2025-11-11T02:43:02.348832",
    "MEAN_MOTION": 15.30181303,
    "ECCENTRICITY": 2.97e-05,
    "INCLINATION": 53.1594,
    "RA_OF_ASC_NODE": 217.5484,
    "ARG_OF_PERICENTER": 171.1083,
    "MEAN_ANOMALY": 188.9923,
    "EPHEMERIS_TYPE": 0,
    "CLASSIFICATION_TYPE": "U",
    "NORAD_CAT_ID": 65094,
    "ELEMENT_SET_NO": 999,
    "REV_AT_EPOCH": 1532,
    "BSTAR": 0.0010961,
    "MEAN_MOTION_DOT": 0.00032228,
    "MEAN_MOTION_DDOT": 0.0,
    "TLE_LINE1": "1 65094U 25167S   25315.11322163  .00032228  00000+0  10961-2 0  9995",
    "TLE_LINE2": "2 65094  53.1594 217.5484 0000297 171.1083 188.9923 15.30181303 15329",
    "COMMENT": "Grouped by shell and plane from TLE"
  }
]